{
  "type": "FeatureCollection",
  "features": [
    {
      "type": "Feature",
      "properties": {
        "norad_id": 66681,
        "name": "TRANSPORTER-15 R",
        "group": "last-30-days",
        "lat": -12.480296770908442,
        "lon": 68.03645437322412,
        "alt_km": 516.820256111032,
        "timestamp": "2025-12-20T18:51:30.445908+00:00",
        "meta_object_name": "TRANSPORTER-15 R",
        "meta_object_id": "2025-276R",
        "meta_epoch": "2025-12-20T14:09:56.462976",
        "meta_mean_motion": 15.17361541,
        "meta_eccentricity": 0.00048811,
        "meta_inclination": 97.4344,
        "meta_ra_of_asc_node": 66.1884,
        "meta_arg_of_pericenter": 285.4187,
        "meta_mean_anomaly": 74.6507,
        "meta_ephemeris_type": 0,
        "meta_classification_type": "U",
        "meta_norad_cat_id": 66681,
        "meta_element_set_no": 999,
        "meta_rev_at_epoch": 331,
        "meta_bstar": 0.00052852789,
        "meta_mean_motion_dot": 0.00010495,
        "meta_mean_motion_ddot": 0,
        "tle_line1": "1 66681U 25276R   25354.59023684  .00010495  00000+0  52853-3 0  9999",
        "tle_line2": "2 66681  97.4344  66.1884 0004881 285.4187  74.6507 15.17361541  3319"
      },
      "geometry": {
        "type": "Point",
        "coordinates": [
          68.03645437322412,
          -12.480296770908442
        ]
      }
    },
    {
      "type": "Feature",
      "properties": {
        "norad_id": 66682,
        "name": "TRANSPORTER-15 S",
        "group": "last-30-days",
        "lat": -22.625254770368258,
        "lon": 69.53325230014796,
        "alt_km": 520.0360415233763,
        "timestamp": "2025-12-20T18:51:30.445918+00:00",
        "meta_object_name": "TRANSPORTER-15 S",
        "meta_object_id": "2025-276S",
        "meta_epoch": "2025-12-20T03:07:44.488992",
        "meta_mean_motion": 15.17084078,
        "meta_eccentricity": 0.00047396,
        "meta_inclination": 97.4468,
        "meta_ra_of_asc_node": 65.7643,
        "meta_arg_of_pericenter": 251.0315,
        "meta_mean_anomaly": 109.0405,
        "meta_ephemeris_type": 0,
        "meta_classification_type": "U",
        "meta_norad_cat_id": 66682,
        "meta_element_set_no": 999,
        "meta_rev_at_epoch": 324,
        "meta_bstar": 0.00037091705,
        "meta_mean_motion_dot": 7.284e-05,
        "meta_mean_motion_ddot": 0,
        "tle_line1": "1 66682U 25276S   25354.13037603  .00007284  00000+0  37092-3 0  9996",
        "tle_line2": "2 66682  97.4468  65.7643 0004739 251.0315 109.0405 15.17084078  3248"
      },
      "geometry": {
        "type": "Point",
        "coordinates": [
          69.53325230014796,
          -22.625254770368258
        ]
      }
    },
    {
      "type": "Feature",
      "properties": {
        "norad_id": 66683,
        "name": "TRANSPORTER-15 T",
        "group": "last-30-days",
        "lat": -26.257407767550305,
        "lon": 70.10462517218043,
        "alt_km": 520.3082165879123,
        "timestamp": "2025-12-20T18:51:30.445927+00:00",
        "meta_object_name": "TRANSPORTER-15 T",
        "meta_object_id": "2025-276T",
        "meta_epoch": "2025-12-20T04:43:37.659360",
        "meta_mean_motion": 15.16976032,
        "meta_eccentricity": 0.00046117,
        "meta_inclination": 97.4462,
        "meta_ra_of_asc_node": 65.827,
        "meta_arg_of_pericenter": 253.4472,
        "meta_mean_anomaly": 106.6255,
        "meta_ephemeris_type": 0,
        "meta_classification_type": "U",
        "meta_norad_cat_id": 66683,
        "meta_element_set_no": 999,
        "meta_rev_at_epoch": 325,
        "meta_bstar": 0.00024112286,
        "meta_mean_motion_dot": 4.696e-05,
        "meta_mean_motion_ddot": 0,
        "tle_line1": "1 66683U 25276T   25354.19696365  .00004696  00000+0  24112-3 0  9992",
        "tle_line2": "2 66683  97.4462  65.8270 0004611 253.4472 106.6255 15.16976032  3255"
      },
      "geometry": {
        "type": "Point",
        "coordinates": [
          70.10462517218043,
          -26.257407767550305
        ]
      }
    },
    {
      "type": "Feature",
      "properties": {
        "norad_id": 66684,
        "name": "TRANSPORTER-15 U",
        "group": "last-30-days",
        "lat": -11.405864218429556,
        "lon": 67.93053765234782,
        "alt_km": 518.9862495406942,
        "timestamp": "2025-12-20T18:51:30.445941+00:00",
        "meta_object_name": "TRANSPORTER-15 U",
        "meta_object_id": "2025-276U",
        "meta_epoch": "2025-12-20T14:09:38.272320",
        "meta_mean_motion": 15.1725938,
        "meta_eccentricity": 0.00043384,
        "meta_inclination": 97.448,
        "meta_ra_of_asc_node": 66.2258,
        "meta_arg_of_pericenter": 251.046,
        "meta_mean_anomaly": 109.0304,
        "meta_ephemeris_type": 0,
        "meta_classification_type": "U",
        "meta_norad_cat_id": 66684,
        "meta_element_set_no": 999,
        "meta_rev_at_epoch": 331,
        "meta_bstar": 0.00041566072,
        "meta_mean_motion_dot": 8.212e-05,
        "meta_mean_motion_ddot": 0,
        "tle_line1": "1 66684U 25276U   25354.59002630  .00008212  00000+0  41566-3 0  9993",
        "tle_line2": "2 66684  97.4480  66.2258 0004338 251.0460 109.0304 15.17259380  3314"
      },
      "geometry": {
        "type": "Point",
        "coordinates": [
          67.93053765234782,
          -11.405864218429556
        ]
      }
    },
    {
      "type": "Feature",
      "properties": {
        "norad_id": 66685,
        "name": "TRANSPORTER-15 V",
        "group": "last-30-days",
        "lat": -5.434058857351365,
        "lon": 67.11835521652652,
        "alt_km": 517.0090632008041,
        "timestamp": "2025-12-20T18:51:30.445957+00:00",
        "meta_object_name": "TRANSPORTER-15 V",
        "meta_object_id": "2025-276V",
        "meta_epoch": "2025-12-20T14:08:04.479072",
        "meta_mean_motion": 15.17402165,
        "meta_eccentricity": 0.00038513,
        "meta_inclination": 97.443,
        "meta_ra_of_asc_node": 66.2124,
        "meta_arg_of_pericenter": 274.799,
        "meta_mean_anomaly": 85.2804,
        "meta_ephemeris_type": 0,
        "meta_classification_type": "U",
        "meta_norad_cat_id": 66685,
        "meta_element_set_no": 999,
        "meta_rev_at_epoch": 331,
        "meta_bstar": 0.00059507547,
        "meta_mean_motion_dot": 0.00011839,
        "meta_mean_motion_ddot": 0,
        "tle_line1": "1 66685U 25276V   25354.58894073  .00011839  00000+0  59508-3 0  9997",
        "tle_line2": "2 66685  97.4430  66.2124 0003851 274.7990  85.2804 15.17402165  3312"
      },
      "geometry": {
        "type": "Point",
        "coordinates": [
          67.11835521652652,
          -5.434058857351365
        ]
      }
    },
    {
      "type": "Feature",
      "properties": {
        "norad_id": 66686,
        "name": "TRANSPORTER-15 W",
        "group": "last-30-days",
        "lat": -21.761924758056093,
        "lon": 69.4017894879801,
        "alt_km": 520.1138480107074,
        "timestamp": "2025-12-20T18:51:30.445967+00:00",
        "meta_object_name": "TRANSPORTER-15 W",
        "meta_object_id": "2025-276W",
        "meta_epoch": "2025-12-20T03:07:26.447808",
        "meta_mean_motion": 15.16972854,
        "meta_eccentricity": 0.00040006,
        "meta_inclination": 97.4465,
        "meta_ra_of_asc_node": 65.7648,
        "meta_arg_of_pericenter": 256.2752,
        "meta_mean_anomaly": 103.8036,
        "meta_ephemeris_type": 0,
        "meta_classification_type": "U",
        "meta_norad_cat_id": 66686,
        "meta_element_set_no": 999,
        "meta_rev_at_epoch": 324,
        "meta_bstar": 0.00026846338,
        "meta_mean_motion_dot": 5.235e-05,
        "meta_mean_motion_ddot": 0,
        "tle_line1": "1 66686U 25276W   25354.13016722  .00005235  00000+0  26846-3 0  9998",
        "tle_line2": "2 66686  97.4465  65.7648 0004000 256.2752 103.8036 15.16972854  3246"
      },
      "geometry": {
        "type": "Point",
        "coordinates": [
          69.4017894879801,
          -21.761924758056093
        ]
      }
    },
    {
      "type": "Feature",
      "properties": {
        "norad_id": 66687,
        "name": "TRANSPORTER-15 X",
        "group": "last-30-days",
        "lat": -48.439718952669885,
        "lon": 74.85367938246208,
        "alt_km": 524.985904441156,
        "timestamp": "2025-12-20T18:51:30.445977+00:00",
        "meta_object_name": "TRANSPORTER-15 X",
        "meta_object_id": "2025-276X",
        "meta_epoch": "2025-12-20T14:19:25.467456",
        "meta_mean_motion": 15.16643007,
        "meta_eccentricity": 0.00084694,
        "meta_inclination": 97.44,
        "meta_ra_of_asc_node": 66.1925,
        "meta_arg_of_pericenter": 62.8763,
        "meta_mean_anomaly": 297.3333,
        "meta_ephemeris_type": 0,
        "meta_classification_type": "U",
        "meta_norad_cat_id": 66687,
        "meta_element_set_no": 999,
        "meta_rev_at_epoch": 331,
        "meta_bstar": 0.00039149034,
        "meta_mean_motion_dot": 7.6e-05,
        "meta_mean_motion_ddot": 0,
        "tle_line1": "1 66687U 25276X   25354.59682254  .00007600  00000+0  39149-3 0  9996",
        "tle_line2": "2 66687  97.4400  66.1925 0008469  62.8763 297.3333 15.16643007  3317"
      },
      "geometry": {
        "type": "Point",
        "coordinates": [
          74.85367938246208,
          -48.439718952669885
        ]
      }
    }
  ]
}